FIREFLY-1               
1 62701U 25009CW  26191.75601899  .00000908  00000+0  93359-4 0  9995
2 62701  97.7063 269.3976 0002337 244.8777 115.2201 14.92734246 80839
FIREFLY-2               
1 62704U 25009CZ  26191.66687632  .00000484  00000+0  52226-4 0  9994
2 62704  97.7020 269.0826 0006818  17.9160 342.2298 14.92729538 80824
FIREFLY-3               
1 62710U 25009DF  26191.71221870  .00000760  00000+0  78896-4 0  9993
2 62710  97.7053 269.3846 0004865  83.4343 276.7430 14.92794772 80846
