{"fetched_at":"2026-07-11T06:35:24.808Z","source":"https://celestrak.org/NORAD/elements/gp.php?NAME=FIREFLY&FORMAT=JSON","constellation":"pixxel","records":[{"OBJECT_NAME":"FIREFLY-1","OBJECT_ID":"2025-009CW","EPOCH":"2026-07-10T18:08:40.040736","CLASSIFICATION_TYPE":"U","MEAN_MOTION":14.92734246,"ECCENTRICITY":0.0002337,"INCLINATION":97.7063,"RA_OF_ASC_NODE":269.3976,"ARG_OF_PERICENTER":244.8777,"MEAN_ANOMALY":115.2201,"EPHEMERIS_TYPE":0,"NORAD_CAT_ID":62701,"ELEMENT_SET_NO":999,"REV_AT_EPOCH":8083,"BSTAR":0.000093359,"MEAN_MOTION_DOT":0.00000908,"MEAN_MOTION_DDOT":0},{"OBJECT_NAME":"FIREFLY-2","OBJECT_ID":"2025-009CZ","EPOCH":"2026-07-10T16:00:18.114048","CLASSIFICATION_TYPE":"U","MEAN_MOTION":14.92729538,"ECCENTRICITY":0.0006818,"INCLINATION":97.702,"RA_OF_ASC_NODE":269.0826,"ARG_OF_PERICENTER":17.916,"MEAN_ANOMALY":342.2298,"EPHEMERIS_TYPE":0,"NORAD_CAT_ID":62704,"ELEMENT_SET_NO":999,"REV_AT_EPOCH":8082,"BSTAR":0.000052226,"MEAN_MOTION_DOT":0.00000484,"MEAN_MOTION_DDOT":0},{"OBJECT_NAME":"FIREFLY-3","OBJECT_ID":"2025-009DF","EPOCH":"2026-07-10T17:05:35.695680","CLASSIFICATION_TYPE":"U","MEAN_MOTION":14.92794772,"ECCENTRICITY":0.0004865,"INCLINATION":97.7053,"RA_OF_ASC_NODE":269.3846,"ARG_OF_PERICENTER":83.4343,"MEAN_ANOMALY":276.743,"EPHEMERIS_TYPE":0,"NORAD_CAT_ID":62710,"ELEMENT_SET_NO":999,"REV_AT_EPOCH":8084,"BSTAR":0.000078896,"MEAN_MOTION_DOT":0.0000076,"MEAN_MOTION_DDOT":0}]}
